STARLINK-31094          
1 58593U 23200E   24102.69367838  .00003052  00000+0  24085-3 0  9997
2 58593  43.0004 357.9133 0001065 276.5239  83.5482 15.02537860 18747
STARLINK-31075          
1 58594U 23200F   24102.88977780  .00003219  00000+0  25332-3 0  9993
2 58594  43.0027 356.8076 0001355 267.4939  92.5748 15.02531545 18777
STARLINK-30857          
1 58595U 23200G   24102.68368126  .00002448  00000+0  19621-3 0  9997
2 58595  43.0020 357.8422 0001424 264.1471  95.9209 15.02538334 18748
STARLINK-31059          
1 58596U 23200H   24103.02402875  .00004627  00000+0  18656-3 0  9995
2 58596  43.0038 341.4844 0001294 270.9094  89.1609 15.25921383 18997
STARLINK-31087          
1 58597U 23200J   24102.41110956  .00000811  00000+0  75053-4 0  9990
2 58597  43.0032 359.2379 0001061 268.7921  91.2800 15.02540707 18593
STARLINK-31079          
1 58598U 23200K   24103.13902671  .00002961  00000+0  23406-3 0  9996
2 58598  43.0030 355.2396 0001293 273.9655  86.1039 15.02553254 18842
STARLINK-31072          
1 58599U 23200L   24103.07419082  .00075506  00000+0  26959-2 0  9999
2 58599  43.0068 347.0712 0005693 264.3004  95.7199 15.27925609 18921
STARLINK-31052          
1 58600U 23200M   24102.40445076 -.00000028  00000+0  13030-4 0  9996
2 58600  43.0039 359.1893 0001329 264.8387  95.2304 15.02535724 18704
STARLINK-31074          
1 58601U 23200N   24102.40112114  .00006867  00000+0  52284-3 0  9990
2 58601  43.0023 359.1614 0001562 268.6046  91.4618 15.02543754 18700
STARLINK-31071          
1 58602U 23200P   24103.04094500  .00002813  00000+0  11736-3 0  9994
2 58602  43.0015 336.3963 0001183 295.4903  64.5826 15.25903377 18938
STARLINK-31080          
1 58603U 23200Q   24103.52791509  .00006960  00000+0  52970-3 0  9993
2 58603  43.0016 352.9956 0001705 257.7141 102.3511 15.02539499 18613
STARLINK-31088          
1 58604U 23200R   24103.12571400  .00011479  00000+0  86295-3 0  9994
2 58604  43.0033 355.1117 0001278 271.0564  89.0132 15.02555802 18830
STARLINK-31038          
1 58605U 23200S   24103.05257885  .00009171  00000+0  69301-3 0  9990
2 58605  43.0029 355.4468 0001721 261.5695  98.4952 15.02541839 18828
STARLINK-31082          
1 58606U 23200T   24103.12238643  .00006457  00000+0  49247-3 0  9991
2 58606  43.0038 355.1158 0001833 287.9365  72.1277 15.02548076 18832
STARLINK-31069          
1 58607U 23200U   24103.11574819 -.00004939  00000+0 -35110-3 0  9998
2 58607  43.0051 355.0605 0000954 296.8242  63.2503 15.02504969 18836
STARLINK-31067          
1 58608U 23200V   24103.04592029  .00001665  00000+0  13825-3 0  9994
2 58608  43.0034 355.3899 0001077 269.2760  90.7959 15.02538841 18827
STARLINK-31085          
1 58609U 23200W   24102.44429143 -.00000627  00000+0 -31371-4 0  9990
2 58609  43.0050 358.6156 0001247 260.9912  99.0790 15.02537433 18713
STARLINK-31089          
1 58610U 23200X   24102.83327938  .00000492  00000+0  51461-4 0  9994
2 58610  43.0040 357.1695 0001472 260.1807  99.8869 15.02537312 18767
STARLINK-31061          
1 58611U 23200Y   24102.44096087  .00000346  00000+0  40721-4 0  9995
2 58611  43.0041 358.5854 0001616 265.3745  94.6912 15.02537355 18713
STARLINK-31054          
1 58619U 23203B   24103.28252900  .00041378  00000+0  15810-2 0  9996
2 58619  43.0005  35.8585 0001444 272.7714  87.2972 15.25947726 18215
STARLINK-31118          
1 58620U 23203C   24103.09661935  .00043569  00000+0  14583-2 0  9999
2 58620  43.0007  36.1849 0005666 226.2746 133.7638 15.30251319 18314
STARLINK-31134          
1 58621U 23203D   24103.20576056  .00010552  00000+0  41254-3 0  9994
2 58621  43.0032  36.1323 0002106 246.8827 113.1802 15.25917650 18264
STARLINK-31133          
1 58622U 23203E   24103.21254035  .00023944  00000+0  92109-3 0  9990
2 58622  43.0007  36.1909 0001432 262.8184  97.2504 15.25949825 17092
STARLINK-31068          
1 58623U 23203F   24103.07937670  .00025290  00000+0  97241-3 0  9996
2 58623  43.0007  36.9083 0001996 259.9024 100.1602 15.25939981 18242
STARLINK-31129          
1 58624U 23203G   24103.20802879  .00000100  00000+0  13664-4 0  9995
2 58624  43.0025  36.1532 0001399 270.0173  90.0517 15.25904163 18268
STARLINK-30774          
1 58625U 23203H   24103.20122855  .00003442  00000+0  14133-3 0  9998
2 58625  43.0020  36.0943 0001226 240.7982 119.2747 15.25919432 18321
STARLINK-31086          
1 58626U 23203J   24103.17845592  .00005850  00000+0  23315-3 0  9992
2 58626  43.0068  35.0532 0000875 298.2277  61.8486 15.25930756 18325
STARLINK-31065          
1 58627U 23203K   24103.18286281  .00004666  00000+0  18806-3 0  9991
2 58627  43.0021  34.2235 0001700 254.7208 105.3455 15.25914841 18221
STARLINK-31092          
1 58628U 23203L   24103.19896245  .00008466  00000+0  33279-3 0  9993
2 58628  43.0015  36.0744 0001567 237.3862 122.6838 15.25941855 18260
STARLINK-31091          
1 58629U 23203M   24102.99807617  .00008446  00000+0  33219-3 0  9998
2 58629  43.0005  37.1385 0001256 263.0139  97.0569 15.25927149 18122
STARLINK-31084          
1 58630U 23203N   24102.99581870 -.00003335  00000+0 -11775-3 0  9997
2 58630  42.9996  37.1168 0001577 248.4098 111.6585 15.25898471 18291
STARLINK-31064          
1 58631U 23203P   24102.53308352  .00018180  00000+0  70367-3 0  9994
2 58631  43.0046  39.6636 0000460 251.9838 108.0963 15.25884359 18164
STARLINK-31081          
1 58632U 23203Q   24103.25083895  .00006142  00000+0  24430-3 0  9992
2 58632  43.0033  35.5912 0001318 268.3206  91.7494 15.25931024 18278
STARLINK-31022          
1 58633U 23203R   24103.45175252  .00058770  00000+0  22369-2 0  9996
2 58633  43.0026  34.5203 0001080 237.7957 122.2789 15.25935858 18368
STARLINK-31025          
1 58634U 23203S   24103.17579263  .00001131  00000+0  53062-4 0  9991
2 58634  43.0005  32.3762 0000786 253.9149 106.1616 15.25909044 18365
STARLINK-31018          
1 58635U 23203T   24103.16290456  .00002857  00000+0  11895-3 0  9998
2 58635  43.0019  36.6707 0001198 254.6367 105.4352 15.25925867 18310
STARLINK-31008          
1 58636U 23203U   24103.16519529  .00003566  00000+0  14613-3 0  9993
2 58636  43.0037  36.6885 0001439 273.7135  86.3551 15.25903531 18313
STARLINK-31077          
1 58637U 23203V   24103.16065398 -.00001907  00000+0 -63082-4 0  9998
2 58637  43.0007  36.6601 0001181 259.3000 100.7718 15.25904169 18259
STARLINK-31078          
1 58638U 23203W   24103.09067564  .00020232  00000+0  78078-3 0  9998
2 58638  42.9982  36.9967 0001458 246.0841 113.9858 15.25925043 18302
STARLINK-31070          
1 58639U 23203X   24103.15387549  .00033361  00000+0  12784-2 0  9992
2 58639  42.9999  36.6133 0001487 270.3540  89.7141 15.25935773 18318
STARLINK-31090          
1 58640U 23203Y   24103.12439341  .00033380  00000+0  10746-2 0  9996
2 58640  43.0021  28.5914 0001489 234.7660 125.3054 15.31622158 18412
STARLINK-31113          
1 58668U 23211B   24103.20045451  .00035154  00000+0  13463-2 0  9999
2 58668  43.0013  52.8465 0001126 260.7820  99.2903 15.25935489 17293
STARLINK-31128          
1 58669U 23211C   24103.24779603  .00005088  00000+0  20408-3 0  9998
2 58669  43.0040  52.3302 0001045 246.6844 113.3897 15.25930672 17084
STARLINK-31083          
1 58670U 23211D   24103.20497716  .00025808  00000+0  99227-3 0  9995
2 58670  43.0024  52.8784 0002113 260.6358  99.4254 15.25932774 17198
STARLINK-30828          
1 58671U 23211E   24103.29290971  .00004972  00000+0  19969-3 0  9993
2 58671  43.0031  51.7924 0001281 264.8223  95.2482 15.25926035 16833
STARLINK-31104          
1 58672U 23211F   24103.20723427  .00004723  00000+0  19018-3 0  9991
2 58672  43.0011  52.8857 0001720 246.9909 113.0761 15.25929736 17290
STARLINK-31131          
1 58673U 23211G   24102.57337607  .00002042  00000+0  87904-4 0  9994
2 58673  43.0044  47.0728 0001216 263.7590  96.3122 15.25908581 17304
STARLINK-31124          
1 58674U 23211H   24102.87090616  .00032820  00000+0  12592-2 0  9990
2 58674  43.0009  54.6730 0001482 263.8447  96.2235 15.25902814 15967
STARLINK-31126          
1 58675U 23211J   24103.27495101 -.00006020  00000+0 -22030-3 0  9998
2 58675  43.0003  52.5262 0000606 247.7550 112.3237 15.25937872 17193
STARLINK-31066          
1 58676U 23211K   24103.30385331 -.00001019  00000+0 -60397-4 0  9998
2 58676  43.0025  58.6589 0001408 270.8476  89.2205 15.02528513 17237
STARLINK-31058          
1 58677U 23211L   24103.19593710  .00003147  00000+0  13010-3 0  9999
2 58677  42.9998  52.8122 0001027 260.5119  99.5616 15.25912146 17190
STARLINK-31125          
1 58678U 23211M   24103.15973903  .00000425  00000+0  26110-4 0  9994
2 58678  43.0038  52.5132 0001641 273.7830  86.2833 15.25913809 17184
STARLINK-31110          
1 58679U 23211N   24103.25460398  .00020659  00000+0  79677-3 0  9991
2 58679  43.0033  52.3856 0000855 242.0080 118.0685 15.25935980 17298
STARLINK-31112          
1 58680U 23211P   24103.25005867  .00003412  00000+0  14010-3 0  9997
2 58680  43.0018  52.3517 0000803 276.8668  83.2091 15.25935014 17200
STARLINK-31147          
1 58681U 23211Q   24103.05596106  .00013834  00000+0  53717-3 0  9993
2 58681  42.9983  53.4741 0001345 241.5737 118.4978 15.25942648 17261
STARLINK-31144          
1 58682U 23211R   24103.15746465  .00007074  00000+0  27980-3 0  9992
2 58682  43.0013  52.4957 0001468 268.0485  92.0198 15.25933286 17298
STARLINK-31095          
1 58683U 23211S   24103.24553637  .00001467  00000+0  65842-4 0  9990
2 58683  43.0041  52.3139 0001183 258.5448 101.5270 15.25938106 17291
STARLINK-31107          
1 58684U 23211T   24102.84376698  .00001108  00000+0  52181-4 0  9990
2 58684  42.9990  54.4371 0000721 185.5778 174.5065 15.25902252 15963
STARLINK-31121          
1 58685U 23211U   24103.16426305  .00005267  00000+0  21105-3 0  9999
2 58685  43.0072  52.5405 0001258 295.0257  65.0463 15.25911564 17187
